{"type": "FeatureCollection", "features": [ {"type": "Feature", "properties": {"norad_id": 51444, "name": "CSG-2", "group": "resource", "lat": 81.65374373621164, "lon": 54.60947786534531, "alt_km": 614.0362669087081, "timestamp": "2025-12-08T10:52:02.607248+00:00", "meta": {"OBJECT_NAME": "CSG-2", "OBJECT_ID": "2022-008A", "EPOCH": "2025-12-07T23:06:31.990464", "MEAN_MOTION": 14.82155686, "ECCENTRICITY": 0.00014906, "INCLINATION": 97.8813, "RA_OF_ASC_NODE": 163.3581, "ARG_OF_PERICENTER": 88.0933, "MEAN_ANOMALY": 272.045, "EPHEMERIS_TYPE": 0, "CLASSIFICATION_TYPE": "U", "NORAD_CAT_ID": 51444, "ELEMENT_SET_NO": 999, "REV_AT_EPOCH": 20826, "BSTAR": 0.00010191801, "MEAN_MOTION_DOT": 7.59e-06, "MEAN_MOTION_DDOT": 0}, "tle": {"line1": "1 51444U 22008A   25341.96287026  .00000759  00000+0  10192-3 0  9991", "line2": "2 51444  97.8813 163.3581 0001490  88.0933 272.0450 14.82155686208262"}}, "geometry": {"type": "Point", "coordinates": [54.60947786534531, 81.65374373621164]}}, {"type": "Feature", "properties": {"norad_id": 52912, "name": "GAOFEN-12 03", "group": "resource", "lat": 48.03134917010209, "lon": -138.9215450827617, "alt_km": 624.8399181383375, "timestamp": "2025-12-08T10:52:02.607261+00:00", "meta": {"OBJECT_NAME": "GAOFEN-12 03", "OBJECT_ID": "2022-069A", "EPOCH": "2025-12-07T23:17:13.145856", "MEAN_MOTION": 14.79591406, "ECCENTRICITY": 0.00022762, "INCLINATION": 97.8487, "RA_OF_ASC_NODE": 229.4294, "ARG_OF_PERICENTER": 70.7647, "MEAN_ANOMALY": 289.3811, "EPHEMERIS_TYPE": 0, "CLASSIFICATION_TYPE": "U", "NORAD_CAT_ID": 52912, "ELEMENT_SET_NO": 999, "REV_AT_EPOCH": 18633, "BSTAR": 0.0002464038, "MEAN_MOTION_DOT": 1.795e-05, "MEAN_MOTION_DDOT": 0}, "tle": {"line1": "1 52912U 22069A   25341.97029104  .00001795  00000+0  24640-3 0  9995", "line2": "2 52912  97.8487 229.4294 0002276  70.7647 289.3811 14.79591406186333"}}, "geometry": {"type": "Point", "coordinates": [-138.9215450827617, 48.03134917010209]}}, {"type": "Feature", "properties": {"norad_id": 54754, "name": "SWOT", "group": "resource", "lat": 12.98901671365875, "lon": 109.87076616360729, "alt_km": 893.9189691038891, "timestamp": "2025-12-08T10:52:02.607272+00:00", "meta": {"OBJECT_NAME": "SWOT", "OBJECT_ID": "2022-173A", "EPOCH": "2025-12-07T22:04:12.476640", "MEAN_MOTION": 14.0017359, "ECCENTRICITY": 3.469e-05, "INCLINATION": 77.6102, "RA_OF_ASC_NODE": 293.4967, "ARG_OF_PERICENTER": 126.045, "MEAN_ANOMALY": 234.0734, "EPHEMERIS_TYPE": 0, "CLASSIFICATION_TYPE": "U", "NORAD_CAT_ID": 54754, "ELEMENT_SET_NO": 999, "REV_AT_EPOCH": 15238, "BSTAR": 9.7226185e-05, "MEAN_MOTION_DOT": 1.41e-06, "MEAN_MOTION_DDOT": 0}, "tle": {"line1": "1 54754U 22173A   25341.91958885  .00000141  00000+0  97226-4 0  9993", "line2": "2 54754  77.6102 293.4967 0000346 126.0450 234.0734 14.00173590152383"}}, "geometry": {"type": "Point", "coordinates": [109.87076616360729, 12.98901671365875]}}, {"type": "Feature", "properties": {"norad_id": 57654, "name": "GAOFEN-12 04", "group": "resource", "lat": -36.61881161704285, "lon": 72.34272619941058, "alt_km": 637.5044919241254, "timestamp": "2025-12-08T10:52:02.607282+00:00", "meta": {"OBJECT_NAME": "GAOFEN-12 04", "OBJECT_ID": "2023-123A", "EPOCH": "2025-12-07T22:31:45.712128", "MEAN_MOTION": 14.79677967, "ECCENTRICITY": 0.00013893, "INCLINATION": 97.912, "RA_OF_ASC_NODE": 257.7688, "ARG_OF_PERICENTER": 73.0904, "MEAN_ANOMALY": 287.046, "EPHEMERIS_TYPE": 0, "CLASSIFICATION_TYPE": "U", "NORAD_CAT_ID": 57654, "ELEMENT_SET_NO": 999, "REV_AT_EPOCH": 12434, "BSTAR": 0.00030485052, "MEAN_MOTION_DOT": 2.237e-05, "MEAN_MOTION_DDOT": 0}, "tle": {"line1": "1 57654U 23123A   25341.93872352  .00002237  00000+0  30485-3 0  9998", "line2": "2 57654  97.9120 257.7688 0001389  73.0904 287.0460 14.79677967124348"}}, "geometry": {"type": "Point", "coordinates": [72.34272619941058, -36.61881161704285]}}, {"type": "Feature", "properties": {"norad_id": 59065, "name": "PARS 1", "group": "resource", "lat": 29.954550811915773, "lon": -51.037610940181835, "alt_km": 437.1829711520031, "timestamp": "2025-12-08T10:52:02.607292+00:00", "meta": {"OBJECT_NAME": "PARS 1", "OBJECT_ID": "2024-039Q", "EPOCH": "2025-12-07T22:16:03.757728", "MEAN_MOTION": 15.40814234, "ECCENTRICITY": 0.00126879, "INCLINATION": 97.4635, "RA_OF_ASC_NODE": 312.7592, "ARG_OF_PERICENTER": 86.5628, "MEAN_ANOMALY": 273.7069, "EPHEMERIS_TYPE": 0, "CLASSIFICATION_TYPE": "U", "NORAD_CAT_ID": 59065, "ELEMENT_SET_NO": 999, "REV_AT_EPOCH": 9914, "BSTAR": 0.00035806523, "MEAN_MOTION_DOT": 0.00014638, "MEAN_MOTION_DDOT": 0}, "tle": {"line1": "1 59065U 24039Q   25341.92782127  .00014638  00000+0  35807-3 0  9993", "line2": "2 59065  97.4635 312.7592 0012687  86.5628 273.7069 15.40814234 99148"}}, "geometry": {"type": "Point", "coordinates": [-51.037610940181835, 29.954550811915773]}}, {"type": "Feature", "properties": {"norad_id": 59371, "name": "RESURS-P 4", "group": "resource", "lat": -50.69585639044609, "lon": -62.177371960263564, "alt_km": 477.0116469237464, "timestamp": "2025-12-08T10:52:02.607302+00:00", "meta": {"OBJECT_NAME": "RESURS-P 4", "OBJECT_ID": "2024-061A", "EPOCH": "2025-12-07T22:33:00.937152", "MEAN_MOTION": 15.3202763, "ECCENTRICITY": 0.00018625, "INCLINATION": 97.2544, "RA_OF_ASC_NODE": 288.3678, "ARG_OF_PERICENTER": 53.5958, "MEAN_ANOMALY": 306.5456, "EPHEMERIS_TYPE": 0, "CLASSIFICATION_TYPE": "U", "NORAD_CAT_ID": 59371, "ELEMENT_SET_NO": 999, "REV_AT_EPOCH": 9447, "BSTAR": 0.00018059115, "MEAN_MOTION_DOT": 5.508e-05, "MEAN_MOTION_DDOT": 0}, "tle": {"line1": "1 59371U 24061A   25341.93959418  .00005508  00000+0  18059-3 0  9994", "line2": "2 59371  97.2544 288.3678 0001862  53.5958 306.5456 15.32027630 94474"}}, "geometry": {"type": "Point", "coordinates": [-62.177371960263564, -50.69585639044609]}}, {"type": "Feature", "properties": {"norad_id": 59625, "name": "LEGION 1", "group": "resource", "lat": 53.652439969833154, "lon": 46.78423368720227, "alt_km": 511.0859161412236, "timestamp": "2025-12-08T10:52:02.607312+00:00", "meta": {"OBJECT_NAME": "LEGION 1", "OBJECT_ID": "2024-081A", "EPOCH": "2025-12-07T21:57:33.188544", "MEAN_MOTION": 15.16406398, "ECCENTRICITY": 0.00043422, "INCLINATION": 97.5215, "RA_OF_ASC_NODE": 56.5949, "ARG_OF_PERICENTER": 337.6726, "MEAN_ANOMALY": 22.4317, "EPHEMERIS_TYPE": 0, "CLASSIFICATION_TYPE": "U", "NORAD_CAT_ID": 59625, "ELEMENT_SET_NO": 999, "REV_AT_EPOCH": 8854, "BSTAR": 0.00033663528, "MEAN_MOTION_DOT": 6.476e-05, "MEAN_MOTION_DDOT": 0}, "tle": {"line1": "1 59625U 24081A   25341.91496746  .00006476  00000+0  33664-3 0  9990", "line2": "2 59625  97.5215  56.5949 0004342 337.6726  22.4317 15.16406398 88540"}}, "geometry": {"type": "Point", "coordinates": [46.78423368720227, 53.652439969833154]}}, {"type": "Feature", "properties": {"norad_id": 59626, "name": "LEGION 2", "group": "resource", "lat": -53.26808804118429, "lon": -132.98390188565963, "alt_km": 522.8503511854979, "timestamp": "2025-12-08T10:52:02.607322+00:00", "meta": {"OBJECT_NAME": "LEGION 2", "OBJECT_ID": "2024-081B", "EPOCH": "2025-12-07T22:45:10.465920", "MEAN_MOTION": 15.16420321, "ECCENTRICITY": 0.00059225, "INCLINATION": 97.522, "RA_OF_ASC_NODE": 56.7146, "ARG_OF_PERICENTER": 313.9338, "MEAN_ANOMALY": 46.1406, "EPHEMERIS_TYPE": 0, "CLASSIFICATION_TYPE": "U", "NORAD_CAT_ID": 59626, "ELEMENT_SET_NO": 999, "REV_AT_EPOCH": 8855, "BSTAR": 0.00037432541, "MEAN_MOTION_DOT": 7.213e-05, "MEAN_MOTION_DDOT": 0}, "tle": {"line1": "1 59626U 24081B   25341.94803780  .00007213  00000+0  37433-3 0  9992", "line2": "2 59626  97.5220  56.7146 0005922 313.9338  46.1406 15.16420321 88554"}}, "geometry": {"type": "Point", "coordinates": [-132.98390188565963, -53.26808804118429]}}, {"type": "Feature", "properties": {"norad_id": 60182, "name": "ALOS-4 (DAICHI-4)", "group": "resource", "lat": 76.50391743743418, "lon": -67.1705541874541, "alt_km": 622.7950960640301, "timestamp": "2025-12-08T10:52:02.607333+00:00", "meta": {"OBJECT_NAME": "ALOS-4 (DAICHI-4)", "OBJECT_ID": "2024-123A", "EPOCH": "2025-12-07T21:25:38.691552", "MEAN_MOTION": 14.79471569, "ECCENTRICITY": 0.00013785, "INCLINATION": 97.923, "RA_OF_ASC_NODE": 76.8092, "ARG_OF_PERICENTER": 99.8522, "MEAN_ANOMALY": 260.2845, "EPHEMERIS_TYPE": 0, "CLASSIFICATION_TYPE": "U", "NORAD_CAT_ID": 60182, "ELEMENT_SET_NO": 999, "REV_AT_EPOCH": 7759, "BSTAR": 0.00043996135, "MEAN_MOTION_DOT": 3.236e-05, "MEAN_MOTION_DDOT": 0}, "tle": {"line1": "1 60182U 24123A   25341.89280893  .00003236  00000+0  43996-3 0  9998", "line2": "2 60182  97.9230  76.8092 0001378  99.8522 260.2845 14.79471569 77593"}}, "geometry": {"type": "Point", "coordinates": [-67.1705541874541, 76.50391743743418]}}, {"type": "Feature", "properties": {"norad_id": 60452, "name": "LEGION 3", "group": "resource", "lat": -42.95069472462216, "lon": -138.22449211349294, "alt_km": 520.6349343928596, "timestamp": "2025-12-08T10:52:02.607346+00:00", "meta": {"OBJECT_NAME": "LEGION 3", "OBJECT_ID": "2024-146A", "EPOCH": "2025-12-07T21:05:45.121344", "MEAN_MOTION": 15.1568329, "ECCENTRICITY": 0.00143165, "INCLINATION": 45.0028, "RA_OF_ASC_NODE": 336.1887, "ARG_OF_PERICENTER": 172.0469, "MEAN_ANOMALY": 188.0639, "EPHEMERIS_TYPE": 0, "CLASSIFICATION_TYPE": "U", "NORAD_CAT_ID": 60452, "ELEMENT_SET_NO": 999, "REV_AT_EPOCH": 7299, "BSTAR": 0.00037333076, "MEAN_MOTION_DOT": 6.985e-05, "MEAN_MOTION_DDOT": 0}, "tle": {"line1": "1 60452U 24146A   25341.87899446  .00006985  00000+0  37333-3 0  9993", "line2": "2 60452  45.0028 336.1887 0014316 172.0469 188.0639 15.15683290 72990"}}, "geometry": {"type": "Point", "coordinates": [-138.22449211349294, -42.95069472462216]}}]}